{
    "links": {
        "self": "http://www.neowsapp.com/rest/v1/neo/54006058?api_key=iIulBulltgU6a56xZRHN4H3l9WmuAYTsLGpBGhQ2"
    },
    "id": "54006058",
    "neo_reference_id": "54006058",
    "name": "(2020 DX4)",
    "designation": "2020 DX4",
    "nasa_jpl_url": "http://ssd.jpl.nasa.gov/sbdb.cgi?sstr=54006058",
    "absolute_magnitude_h": 26.925,
    "estimated_diameter": {
        "kilometers": {
            "estimated_diameter_min": 0.0109535521,
            "estimated_diameter_max": 0.024492887
        },
        "meters": {
            "estimated_diameter_min": 10.9535520576,
            "estimated_diameter_max": 24.4928869959
        },
        "miles": {
            "estimated_diameter_min": 0.0068062196,
            "estimated_diameter_max": 0.0152191697
        },
        "feet": {
            "estimated_diameter_min": 35.9368517327,
            "estimated_diameter_max": 80.3572433716
        }
    },
    "is_potentially_hazardous_asteroid": false,
    "close_approach_data": [
        {
            "close_approach_date": "2019-10-03",
            "close_approach_date_full": "2019-Oct-03 19:19",
            "epoch_date_close_approach": 1570130340000,
            "relative_velocity": {
                "kilometers_per_second": "12.6570793844",
                "kilometers_per_hour": "45565.4857840067",
                "miles_per_hour": "28312.6208750679"
            },
            "miss_distance": {
                "astronomical": "0.4849578029",
                "lunar": "188.6485853281",
                "kilometers": "72548654.353719823",
                "miles": "45079643.4445586374"
            },
            "orbiting_body": "Earth"
        },
        {
            "close_approach_date": "2020-02-25",
            "close_approach_date_full": "2020-Feb-25 01:37",
            "epoch_date_close_approach": 1582594620000,
            "relative_velocity": {
                "kilometers_per_second": "16.4374334442",
                "kilometers_per_hour": "59174.7603989486",
                "miles_per_hour": "36768.8948712245"
            },
            "miss_distance": {
                "astronomical": "0.0592502993",
                "lunar": "23.0483664277",
                "kilometers": "8863718.572142491",
                "miles": "5507659.3271727358"
            },
            "orbiting_body": "Earth"
        }
    ],
    "orbital_data": {
        "orbit_id": "1",
        "orbit_determination_date": "2020-03-02 04:12:07",
        "first_observation_date": "2020-02-29",
        "last_observation_date": "2020-03-02",
        "data_arc_in_days": 2,
        "observations_used": 14,
        "orbit_uncertainty": "9",
        "minimum_orbit_intersection": ".0589071",
        "jupiter_tisserand_invariant": "4.144",
        "epoch_osculation": "2458909.5",
        "eccentricity": ".4317224016104703",
        "semi_major_axis": "1.608116711056624",
        "inclination": "25.11047544744564",
        "ascending_node_longitude": "339.1593526860373",
        "orbital_period": "744.8602087260691",
        "perihelion_distance": ".9138567024893276",
        "perihelion_argument": "122.6295333056399",
        "aphelion_distance": "2.302376719623921",
        "perihelion_time": "2458861.622780734487",
        "mean_anomaly": "23.13964249085474",
        "mean_motion": ".4833121648633994",
        "equinox": "J2000",
        "orbit_class": {
            "orbit_class_type": "APO",
            "orbit_class_description": "Near-Earth asteroid orbits which cross the Earth’s orbit similar to that of 1862 Apollo",
            "orbit_class_range": "a (semi-major axis) > 1.0 AU; q (perihelion) < 1.017 AU"
        }
    },
    "is_sentry_object": false
}